#aV2016  4  9  0  0  0.00000000     288 DD+AD WGS84 FIT  NGA
## 1891 518400.00000000   300.00000000 57487 0.0000000000000
+   31     1  2  3  5  6  7  8  9 10 11 12 13 14 15 16 17 18
+         19 20 21 22 23 24 25 26 27 28 29 30 31 32  0  0  0
+          0  0  0  0  0  0  0  0  0  0  0  0  0  0  0  0  0
+          0  0  0  0  0  0  0  0  0  0  0  0  0  0  0  0  0
+          0  0  0  0  0  0  0  0  0  0  0  0  0  0  0  0  0
++         2  2  2  2  2  2  2  2  2  2  2  2  2  2  2  2  2
++         2  2  2  2  2  2  2  2  2  2  2  2  2  2  0  0  0
++         0  0  0  0  0  0  0  0  0  0  0  0  0  0  0  0  0
++         0  0  0  0  0  0  0  0  0  0  0  0  0  0  0  0  0
++         0  0  0  0  0  0  0  0  0  0  0  0  0  0  0  0  0
%c cc cc ccc ccc cccc cccc cccc cccc ccccc ccccc ccccc ccccc
%c cc cc ccc ccc cccc cccc cccc cccc ccccc ccccc ccccc ccccc
%f  0.0000000  0.000000000  0.00000000000  0.000000000000000
%f  0.0000000  0.000000000  0.00000000000  0.000000000000000
%i    0    0    0    0      0      0      0      0         0
%i    0    0    0    0      0      0      0      0         0
/*      NGA, ST. LOUIS,MO.                                  
/*   EPHEMERIS COMPUTED FROM 2 DAYS OF DATA                 
/*   EPOCHA v2.4 SMOOTHER                                   
/*   G1762 IERS2010 SATAF SATAPC                            
*  2016  4  9 18 45  0.00000000
P  1 -11013.371331 -13656.135782 -20081.449897     16.840824                    
V  1  25226.697980  -1638.063494 -12543.682665      0.011359                    
P  2 -12340.204950  14546.134329  18752.626003    597.835451                    
V  2 -23197.157275   -160.949121 -15902.579000     -0.017581                    
P  3 -13241.951711 -22983.080454  -1275.078327    -45.688210                    
V  3   3290.748353   -132.563034 -31679.238572     -0.041423                    
P  5  -2112.305514  19884.150761  17318.366153   -130.350976                    
V  5 -13701.976548 -17638.038572  18702.554898      0.032041                    
P  6 -24418.047975   6543.646398   8162.338726    173.258412                    
V  6 -10426.481023  -2166.144978 -29503.199685      0.056937                    
P  7 -24228.571693  -6361.322488   9542.604897    460.970953                    
V  7  11777.378299  -2147.857988  28480.617823     -0.019957                    
P  8   3880.706953 -23829.797911 -10978.836625    -30.742164                    
V  8   8664.892568 -11298.569869  27479.890395     -0.014411                    
P  9 -13363.335576  -7497.859089  21675.124493    106.658624                    
V  9  12863.271058 -24403.421627   -526.119952      0.074640                    
P 10  17109.972964    507.133155 -20308.623698      6.171023                    
V 10  12877.429690  22389.797614  11338.076109     -0.097106                    
P 11  -5416.316353 -16002.123095 -21048.273436   -640.120240                    
V 11  23834.244634  -9848.109296   1438.013335     -0.014669                    
P 12   9879.281777  24344.451097  -4776.419308    375.692234                    
V 12  -4253.043478  -4333.582377 -31501.256709      0.014116                    
P 13 -11919.884794  23292.562892  -4972.093233     -9.726733                    
V 13  -5375.109498   3730.447924  31112.352248     -0.027120                    
P 14  18979.408581 -10462.448721 -15001.878152     -7.421045                    
V 14  -8690.189048  17637.734240 -23065.206286     -0.021343                    
P 15    897.636323  22579.014930 -13800.407294   -305.703136                    
V 15 -10117.196579  14645.966664  23861.247463     -0.017447                    
P 16   3494.073854 -18813.241623  18144.133285    -25.792611                    
V 16  12050.433976  20004.419083  18702.562666      0.027974                    
P 17 -18306.164659   8597.063958 -16788.383189   -202.966715                    
V 17   9754.560894 -19782.641200 -20551.134708     -0.003316                    
P 18  19625.981464  12604.936928 -12407.747947    502.863629                    
V 18   6582.736970  15547.086834  24867.094807      0.041801                    
P 19 -18630.818981  17094.471030  -8976.029622   -525.589714                    
V 19   4473.216644 -10161.443837 -29029.146045     -0.000766                    
P 20  12155.852602  22958.479736   5257.200744    404.891645                    
V 20  -7204.016168  -3251.732615  30037.824222      0.024711                    
P 21  25608.266913   3828.819403   7243.732217   -518.405981                    
V 21  -8000.227995   3544.543946  29226.353554     -0.015092                    
P 22  -4609.903127 -23127.132915 -11858.014305    365.789609                    
V 22  11509.103399  11024.472462 -25622.821416     -0.072709                    
P 23  -6396.344034 -17310.457484  19123.290196   -168.628166                    
V 23  12828.104801 -20470.300532 -14814.350071     -0.017415                    
P 24   7552.617406  14597.657949 -20954.207644    -15.246587                    
V 24 -26400.458190   2172.725734  -7831.331801     -0.005539                    
P 25  17060.469116  19461.649874   6300.713103   -149.980099                    
V 25   2557.321321   7941.609909 -30683.289797     -0.070832                    
P 26  10992.345266 -10862.175448  21595.610704   -324.412933                    
V 26  14967.657519  22991.019364   3992.431449     -0.137410                    
P 27  11638.244563 -23746.511269  -1161.134569     80.517670                    
V 27   3009.072863    -49.306196  32041.906170      0.038719                    
P 28 -16508.745382  -3357.284333 -19919.933063    515.044343                    
V 28 -11530.768348 -24009.924859  13150.169542      0.026258                    
P 29  10462.052518  11091.505553  21764.958412    656.784719                    
V 29 -14565.518883  23388.128898  -4874.390582      0.002784                    
P 30 -26597.467042   -459.664193   -679.950644    115.091799                    
V 30   -742.827432  -3039.594431  31491.167331      0.035689                    
P 31  23412.600076  -7335.999484  10728.393847    274.514587                    
V 31  13328.642356   1867.030798 -27727.673663     -0.017509                    
P 32  18268.867747 -11625.371156 -15371.767727      6.788743                    
V 32  -7307.521612  18223.369640 -22466.882138     -0.026768                    
EOF
